{"type": "FeatureCollection", "features": [ {"type": "Feature", "properties": {"norad_id": 66591, "name": "STARLINK-36058", "group": "last-30-days", "lat": 5.0592138668658215, "lon": -10.582442066485735, "alt_km": 414.7416981015849, "timestamp": "2025-12-15T19:00:44.076948+00:00", "meta": {"OBJECT_NAME": "STARLINK-36058", "OBJECT_ID": "2025-270D", "EPOCH": "2025-12-14T22:10:26.020128", "MEAN_MOTION": 15.50610977, "ECCENTRICITY": 0.00032622, "INCLINATION": 42.9989, "RA_OF_ASC_NODE": 179.9492, "ARG_OF_PERICENTER": 267.1967, "MEAN_ANOMALY": 92.852, "EPHEMERIS_TYPE": 0, "CLASSIFICATION_TYPE": "U", "NORAD_CAT_ID": 66591, "ELEMENT_SET_NO": 999, "REV_AT_EPOCH": 468, "BSTAR": -0.0010283609, "MEAN_MOTION_DOT": -0.0006029, "MEAN_MOTION_DDOT": 0}, "tle": {"line1": "1 66591U 25270D   25348.92391227 -.00060290  00000+0 -10284-2 0  9995", "line2": "2 66591  42.9989 179.9492 0003262 267.1967  92.8520 15.50610977  4687"}}, "geometry": {"type": "Point", "coordinates": [-10.582442066485735, 5.0592138668658215]}}, {"type": "Feature", "properties": {"norad_id": 66592, "name": "STARLINK-36066", "group": "last-30-days", "lat": 42.92808030114252, "lon": -91.50336047598731, "alt_km": 438.15555164918624, "timestamp": "2025-12-15T19:00:44.076960+00:00", "meta": {"OBJECT_NAME": "STARLINK-36066", "OBJECT_ID": "2025-270E", "EPOCH": "2025-12-14T20:00:06.000192", "MEAN_MOTION": 15.40664891, "ECCENTRICITY": 0.0001511, "INCLINATION": 42.9996, "RA_OF_ASC_NODE": 180.5925, "ARG_OF_PERICENTER": 263.233, "MEAN_ANOMALY": 265.1031, "EPHEMERIS_TYPE": 0, "CLASSIFICATION_TYPE": "U", "NORAD_CAT_ID": 66592, "ELEMENT_SET_NO": 999, "REV_AT_EPOCH": 463, "BSTAR": 0.00083036589, "MEAN_MOTION_DOT": 0.00034499, "MEAN_MOTION_DDOT": 0}, "tle": {"line1": "1 66592U 25270E   25348.83340278  .00034499  00000+0  83037-3 0  9993", "line2": "2 66592  42.9996 180.5925 0001511 263.2330 265.1031 15.40664891  4631"}}, "geometry": {"type": "Point", "coordinates": [-91.50336047598731, 42.92808030114252]}}, {"type": "Feature", "properties": {"norad_id": 66593, "name": "STARLINK-36031", "group": "last-30-days", "lat": 3.6350595173772033, "lon": -9.044972178832097, "alt_km": 416.8351193402759, "timestamp": "2025-12-15T19:00:44.076969+00:00", "meta": {"OBJECT_NAME": "STARLINK-36031", "OBJECT_ID": "2025-270F", "EPOCH": "2025-12-14T22:09:34.286400", "MEAN_MOTION": 15.50283449, "ECCENTRICITY": 0.00018317, "INCLINATION": 42.9991, "RA_OF_ASC_NODE": 179.9445, "ARG_OF_PERICENTER": 300.2852, "MEAN_ANOMALY": 59.7827, "EPHEMERIS_TYPE": 0, "CLASSIFICATION_TYPE": "U", "NORAD_CAT_ID": 66593, "ELEMENT_SET_NO": 999, "REV_AT_EPOCH": 468, "BSTAR": -0.0027150939, "MEAN_MOTION_DOT": -0.00154884, "MEAN_MOTION_DDOT": 0}, "tle": {"line1": "1 66593U 25270F   25348.92331350 -.00154884  00000+0 -27151-2 0  9992", "line2": "2 66593  42.9991 179.9445 0001831 300.2852  59.7827 15.50283449  4684"}}, "geometry": {"type": "Point", "coordinates": [-9.044972178832097, 3.6350595173772033]}}, {"type": "Feature", "properties": {"norad_id": 66594, "name": "STARLINK-36032", "group": "last-30-days", "lat": 1.0339409373429869, "lon": -6.254983355112766, "alt_km": 414.49735509447146, "timestamp": "2025-12-15T19:00:44.076980+00:00", "meta": {"OBJECT_NAME": "STARLINK-36032", "OBJECT_ID": "2025-270G", "EPOCH": "2025-12-14T22:09:00.753696", "MEAN_MOTION": 15.5060905, "ECCENTRICITY": 0.00017763, "INCLINATION": 42.9989, "RA_OF_ASC_NODE": 179.9413, "ARG_OF_PERICENTER": 277.1804, "MEAN_ANOMALY": 82.8854, "EPHEMERIS_TYPE": 0, "CLASSIFICATION_TYPE": "U", "NORAD_CAT_ID": 66594, "ELEMENT_SET_NO": 999, "REV_AT_EPOCH": 449, "BSTAR": 0.0012859855, "MEAN_MOTION_DOT": 0.00075918, "MEAN_MOTION_DDOT": 0}, "tle": {"line1": "1 66594U 25270G   25348.92292539  .00075918  00000+0  12860-2 0  9997", "line2": "2 66594  42.9989 179.9413 0001776 277.1804  82.8854 15.50609050  4490"}}, "geometry": {"type": "Point", "coordinates": [-6.254983355112766, 1.0339409373429869]}}, {"type": "Feature", "properties": {"norad_id": 66595, "name": "STARLINK-35711", "group": "last-30-days", "lat": -0.15068732436731455, "lon": -4.987829367965297, "alt_km": 414.6994904169278, "timestamp": "2025-12-15T19:00:44.076990+00:00", "meta": {"OBJECT_NAME": "STARLINK-35711", "OBJECT_ID": "2025-270H", "EPOCH": "2025-12-14T22:08:31.127136", "MEAN_MOTION": 15.50591358, "ECCENTRICITY": 0.00017143, "INCLINATION": 42.9991, "RA_OF_ASC_NODE": 179.9385, "ARG_OF_PERICENTER": 267.3953, "MEAN_ANOMALY": 92.6711, "EPHEMERIS_TYPE": 0, "CLASSIFICATION_TYPE": "U", "NORAD_CAT_ID": 66595, "ELEMENT_SET_NO": 999, "REV_AT_EPOCH": 479, "BSTAR": 0.00051398093, "MEAN_MOTION_DOT": 0.0002994, "MEAN_MOTION_DDOT": 0}, "tle": {"line1": "1 66595U 25270H   25348.92258249  .00029940  00000+0  51398-3 0  9992", "line2": "2 66595  42.9991 179.9385 0001714 267.3953  92.6711 15.50591358  4795"}}, "geometry": {"type": "Point", "coordinates": [-4.987829367965297, -0.15068732436731455]}}, {"type": "Feature", "properties": {"norad_id": 66596, "name": "STARLINK-35811", "group": "last-30-days", "lat": 39.071403095410076, "lon": -124.27150663072642, "alt_km": 438.95749949190485, "timestamp": "2025-12-15T19:00:44.077000+00:00", "meta": {"OBJECT_NAME": "STARLINK-35811", "OBJECT_ID": "2025-270J", "EPOCH": "2025-12-14T20:00:06.000192", "MEAN_MOTION": 15.40675484, "ECCENTRICITY": 0.00021199, "INCLINATION": 42.9995, "RA_OF_ASC_NODE": 180.6524, "ARG_OF_PERICENTER": 274.3923, "MEAN_ANOMALY": 229.046, "EPHEMERIS_TYPE": 0, "CLASSIFICATION_TYPE": "U", "NORAD_CAT_ID": 66596, "ELEMENT_SET_NO": 999, "REV_AT_EPOCH": 484, "BSTAR": 0.00060329157, "MEAN_MOTION_DOT": 0.0002496, "MEAN_MOTION_DDOT": 0}, "tle": {"line1": "1 66596U 25270J   25348.83340278  .00024960  00000+0  60329-3 0  9998", "line2": "2 66596  42.9995 180.6524 0002119 274.3923 229.0460 15.40675484  4844"}}, "geometry": {"type": "Point", "coordinates": [-124.27150663072642, 39.071403095410076]}}, {"type": "Feature", "properties": {"norad_id": 66597, "name": "STARLINK-35820", "group": "last-30-days", "lat": 37.651869467255864, "lon": -60.884465295569164, "alt_km": 442.1167502282178, "timestamp": "2025-12-15T19:00:44.077010+00:00", "meta": {"OBJECT_NAME": "STARLINK-35820", "OBJECT_ID": "2025-270K", "EPOCH": "2025-12-14T20:00:06.000192", "MEAN_MOTION": 15.41099491, "ECCENTRICITY": 0.00018297, "INCLINATION": 42.9993, "RA_OF_ASC_NODE": 180.5325, "ARG_OF_PERICENTER": 276.4948, "MEAN_ANOMALY": 276.5326, "EPHEMERIS_TYPE": 0, "CLASSIFICATION_TYPE": "U", "NORAD_CAT_ID": 66597, "ELEMENT_SET_NO": 999, "REV_AT_EPOCH": 484, "BSTAR": -0.01635123, "MEAN_MOTION_DOT": -0.00645055, "MEAN_MOTION_DDOT": 0}, "tle": {"line1": "1 66597U 25270K   25348.83340278 -.00645055  00000+0 -16351-1 0  9999", "line2": "2 66597  42.9993 180.5325 0001829 276.4948 276.5326 15.41099491  4845"}}, "geometry": {"type": "Point", "coordinates": [-60.884465295569164, 37.651869467255864]}}, {"type": "Feature", "properties": {"norad_id": 66598, "name": "STARLINK-35981", "group": "last-30-days", "lat": -4.081606411220394, "lon": -0.7722957237191823, "alt_km": 415.1939488666012, "timestamp": "2025-12-15T19:00:44.077021+00:00", "meta": {"OBJECT_NAME": "STARLINK-35981", "OBJECT_ID": "2025-270L", "EPOCH": "2025-12-14T22:07:02.222400", "MEAN_MOTION": 15.50589571, "ECCENTRICITY": 0.00015998, "INCLINATION": 42.9987, "RA_OF_ASC_NODE": 179.9298, "ARG_OF_PERICENTER": 275.416, "MEAN_ANOMALY": 84.6518, "EPHEMERIS_TYPE": 0, "CLASSIFICATION_TYPE": "U", "NORAD_CAT_ID": 66598, "ELEMENT_SET_NO": 999, "REV_AT_EPOCH": 452, "BSTAR": 0.00066047405, "MEAN_MOTION_DOT": 0.00038611, "MEAN_MOTION_DDOT": 0}, "tle": {"line1": "1 66598U 25270L   25348.92155350  .00038611  00000+0  66047-3 0  9996", "line2": "2 66598  42.9987 179.9298 0001599 275.4160  84.6518 15.50589571  4528"}}, "geometry": {"type": "Point", "coordinates": [-0.7722957237191823, -4.081606411220394]}}, {"type": "Feature", "properties": {"norad_id": 66599, "name": "STARLINK-35930", "group": "last-30-days", "lat": -5.361727294870753, "lon": 0.6131050114502764, "alt_km": 415.20022161078214, "timestamp": "2025-12-15T19:00:44.077035+00:00", "meta": {"OBJECT_NAME": "STARLINK-35930", "OBJECT_ID": "2025-270M", "EPOCH": "2025-12-14T22:06:32.703840", "MEAN_MOTION": 15.50583822, "ECCENTRICITY": 7.419e-05, "INCLINATION": 42.9991, "RA_OF_ASC_NODE": 179.9284, "ARG_OF_PERICENTER": 258.8501, "MEAN_ANOMALY": 101.2276, "EPHEMERIS_TYPE": 0, "CLASSIFICATION_TYPE": "U", "NORAD_CAT_ID": 66599, "ELEMENT_SET_NO": 999, "REV_AT_EPOCH": 468, "BSTAR": 0.00050001991, "MEAN_MOTION_DOT": 0.00029106, "MEAN_MOTION_DDOT": 0}, "tle": {"line1": "1 66599U 25270M   25348.92121185  .00029106  00000+0  50002-3 0  9999", "line2": "2 66599  42.9991 179.9284 0000741 258.8501 101.2276 15.50583822  4688"}}, "geometry": {"type": "Point", "coordinates": [0.6131050114502764, -5.361727294870753]}}, {"type": "Feature", "properties": {"norad_id": 66600, "name": "STARLINK-35980", "group": "last-30-days", "lat": -6.711348297459235, "lon": 2.0810835154060565, "alt_km": 415.5416636844775, "timestamp": "2025-12-15T19:00:44.077045+00:00", "meta": {"OBJECT_NAME": "STARLINK-35980", "OBJECT_ID": "2025-270N", "EPOCH": "2025-12-14T22:06:02.721312", "MEAN_MOTION": 15.50596456, "ECCENTRICITY": 0.00029209, "INCLINATION": 42.9988, "RA_OF_ASC_NODE": 179.9244, "ARG_OF_PERICENTER": 280.5185, "MEAN_ANOMALY": 79.5346, "EPHEMERIS_TYPE": 0, "CLASSIFICATION_TYPE": "U", "NORAD_CAT_ID": 66600, "ELEMENT_SET_NO": 999, "REV_AT_EPOCH": 458, "BSTAR": 0.00089161394, "MEAN_MOTION_DOT": 0.00052353, "MEAN_MOTION_DDOT": 0}, "tle": {"line1": "1 66600U 25270N   25348.92086483  .00052353  00000+0  89161-3 0  9991", "line2": "2 66600  42.9988 179.9244 0002920 280.5185  79.5346 15.50596456  4585"}}, "geometry": {"type": "Point", "coordinates": [2.0810835154060565, -6.711348297459235]}}]}